TEVEL2-3                
1 63218U 25052J   26068.64540225  .00020365  00000+0  69446-3 0  9991
2 63218  97.3994 324.7775 0004761 105.7353 254.4413 15.30377031 54855
STARLINK-33686          
1 63422U 25065Z   26068.45906546  .00027476  00000+0  10038-2 0  9995
2 63422  42.9974 108.4015 0001265 261.5870  98.4839 15.27595088 52802
